NORAD_CAT_ID,OBJECT_NAME,OBJECT_TYPE,EPOCH,MEAN_MOTION,ECCENTRICITY,INCLINATION,RA_OF_ASC_NODE,ARG_OF_PERICENTER,MEAN_ANOMALY,BSTAR,MEAN_MOTION_DOT,MEAN_MOTION_DDOT,TLE_LINE0,TLE_LINE1,TLE_LINE2,SEMIMAJOR_AXIS,PERIOD,APOGEE,PERIGEE,DECAYED
55303.0,STARLINK-5322,PAYLOAD,2023-08-29 08:26:36,14.9833336,0.0003396,69.9992,212.3224,264.6187,95.4584,8.3099e-05,8.99e-06,0.0,0 STARLINK-5322,1 55303U 23010AL  23241.35180750  .00000899  00000-0  83099-4 0  9992,2 55303  69.9992 212.3224 0003396 264.6187  95.4584 14.98333360 34173,6950.183,96.107,574.408,569.687,0.0
55303.0,STARLINK-5322,PAYLOAD,2023-08-29 11:38:52,14.98332979,0.0003394,69.9991,211.9853,266.6998,93.3773,9.0204e-05,9.83e-06,0.0,0 STARLINK-5322,1 55303U 23010AL  23241.48532750  .00000983  00000-0  90204-4 0  9997,2 55303  69.9991 211.9853 0003394 266.6998  93.3773 14.98332979 34492,6950.184,96.107,574.408,569.69,0.0
55303.0,STARLINK-5322,PAYLOAD,2023-08-30 00:27:57,14.98326169,0.0003468,69.9991,210.6397,264.1953,95.8811,-9.1413e-07,-1.04e-06,0.0,0 STARLINK-5322,1 55303U 23010AL  23242.01941425 -.00000104  00000-0 -91413-6 0  9992,2 55303  69.9991 210.6397 0003468 264.1953  95.8811 14.98326169 34277,6950.205,96.107,574.48,569.659,0.0
55303.0,STARLINK-5322,PAYLOAD,2023-08-30 14:53:09,14.98336152,0.0003521,69.9994,209.1238,268.4178,91.6577,-0.00014701,-1.847e-05,0.0,0 STARLINK-5322,1 55303U 23010AL  23242.62025202 -.00001847  00000-0 -14701-3 0  9992,2 55303  69.9994 209.1238 0003521 268.4178  91.6577 14.98336152 34662,6950.174,96.107,574.486,569.592,0.0
55303.0,STARLINK-5322,PAYLOAD,2023-08-31 21:19:43,14.98314009,0.0003456,69.9995,205.9267,268.1882,91.8881,0.0002746,3.184e-05,0.0,0 STARLINK-5322,1 55303U 23010AL  23243.88869603  .00003184  00000-0  27460-3 0  9992,2 55303  69.9995 205.9267 0003456 268.1882  91.8881 14.98314009 34853,6950.242,96.108,574.509,569.705,0.0
55303.0,STARLINK-5322,PAYLOAD,2023-09-01 03:44:15,14.98326652,0.0003404,69.9997,205.2531,264.4488,95.6282,5.7385e-05,5.92e-06,0.0,0 STARLINK-5322,1 55303U 23010AL  23244.15573327  .00000592  00000-0  57385-4 0  9998,2 55303  69.9997 205.2531 0003404 264.4488  95.6282 14.98326652 34591,6950.203,96.107,574.434,569.702,0.0
55303.0,STARLINK-5322,PAYLOAD,2023-09-01 21:21:42,14.98358062,0.0006031,70.0003,203.4036,265.5391,94.5079,-0.00046097,-5.595e-05,0.0,0 STARLINK-5322,1 55303U 23010AL  23244.89007847 -.00005595  00000-0 -46097-3 0  9995,2 55303  70.0003 203.4036 0006031 265.5391  94.5079 14.98358062 35005,6950.106,96.105,576.163,567.78,0.0
55303.0,STARLINK-5322,PAYLOAD,2023-09-02 03:46:15,14.98333177,0.0003273,69.9975,202.7278,268.5383,91.5401,5.3983e-05,5.51e-06,0.0,0 STARLINK-5322,1 55303U 23010AL  23245.15712904  .00000551  00000-0  53983-4 0  9990,2 55303  69.9975 202.7278 0003273 268.5383  91.5401 14.98333177 34745,6950.183,96.107,574.323,569.773,0.0
55303.0,STARLINK-5322,PAYLOAD,2023-09-02 08:34:39,14.98335258,0.000328,69.9981,202.2231,269.0496,91.0287,7.5523e-05,8.08e-06,0.0,0 STARLINK-5322,1 55303U 23010AL  23245.35740674  .00000808  00000-0  75523-4 0  9996,2 55303  69.9981 202.2231 0003280 269.0496  91.0287 14.98335258 35071,6950.177,96.107,574.321,569.762,0.0
55303.0,STARLINK-5322,PAYLOAD,2023-09-02 19:47:36,14.98330089,0.0003207,69.9969,201.0445,269.0155,91.0637,6.045e-06,-2.1e-07,0.0,0 STARLINK-5322,1 55303U 23010AL  23245.82473135 -.00000021  00000-0  60450-5 0  9995,2 55303  69.9969 201.0445 0003207 269.0155  91.0637 14.98330089 35146,6950.193,96.107,574.287,569.829,0.0
55303.0,STARLINK-5322,PAYLOAD,2023-09-03 08:36:40,14.98335515,0.0003236,69.9997,199.698,269.0081,91.0707,4.9661e-05,5e-06,0.0,0 STARLINK-5322,1 55303U 23010AL  23246.35880628  .00000500  00000-0  49661-4 0  9994,2 55303  69.9997 199.6980 0003236 269.0081  91.0707 14.98335515 34925,6950.176,96.107,574.29,569.792,0.0
55303.0,STARLINK-5322,PAYLOAD,2023-09-03 23:01:54,14.98326449,0.0003054,70.0005,198.1831,270.426,89.6549,-7.0343e-05,-9.32e-06,0.0,0 STARLINK-5322,1 55303U 23010AL  23246.95965610 -.00000932  00000-0 -70343-4 0  9997,2 55303  70.0005 198.1831 0003054 270.4260  89.6549 14.98326449 35014,6950.204,96.107,574.191,569.946,0.0
55303.0,STARLINK-5322,PAYLOAD,2023-09-04 13:27:06,14.98331914,0.0003206,70.0,196.6689,269.9957,90.0834,-5.3699e-05,-7.34e-06,0.0,0 STARLINK-5322,1 55303U 23010AL  23247.56049232 -.00000734  00000-0 -53699-4 0  9993,2 55303  70.0000 196.6689 0003206 269.9957  90.0834 14.98331914 35407,6950.187,96.107,574.28,569.824,0.0
55303.0,STARLINK-5322,PAYLOAD,2023-09-04 23:03:54,14.98329716,0.0003158,70.0,195.6588,271.1447,88.9351,3.5114e-05,3.26e-06,0.0,0 STARLINK-5322,1 55303U 23010AL  23247.96105172  .00000326  00000-0  35114-4 0  9990,2 55303  70.0000 195.6588 0003158 271.1447  88.9351 14.98329716 35462,6950.194,96.107,574.254,569.864,0.0
55303.0,STARLINK-5322,PAYLOAD,2023-09-05 02:16:11,14.98330006,0.0003151,70.0,195.3221,271.5127,88.5671,2.9744e-05,2.62e-06,0.0,0 STARLINK-5322,1 55303U 23010AL  23248.09457176  .00000262  00000-0  29744-4 0  9990,2 55303  70.0000 195.3221 0003151 271.5127  88.5671 14.98330006 35482,6950.193,96.107,574.248,569.868,0.0
55303.0,STARLINK-5322,PAYLOAD,2023-09-06 19:55:40,14.9833048,0.0002959,70.0005,190.9465,269.3841,90.6979,-2.4419e-05,-3.84e-06,0.0,0 STARLINK-5322,1 55303U 23010AL  23249.83033220 -.00000384  00000-0 -24419-4 0  9994,2 55303  70.0005 190.9465 0002959 269.3841  90.6979 14.98330480 35741,6950.191,96.107,574.113,570.0,0.0
55303.0,STARLINK-5322,PAYLOAD,2023-09-07 02:20:13,14.98329046,0.0002927,70.0006,190.273,268.1475,91.9348,-2.9186e-05,-4.41e-06,0.0,0 STARLINK-5322,1 55303U 23010AL  23250.09737306 -.00000441  00000-0 -29186-4 0  9990,2 55303  70.0006 190.2730 0002927 268.1475  91.9348 14.98329046 35486,6950.196,96.107,574.095,570.027,0.0
55303.0,STARLINK-5322,PAYLOAD,2023-09-08 02:22:13,14.98332601,0.0002781,70.0011,187.7477,265.9794,94.1047,6.1768e-05,6.44e-06,0.0,0 STARLINK-5322,1 55303U 23010AL  23251.09876829  .00000644  00000-0  61768-4 0  9990,2 55303  70.0011 187.7477 0002781 265.9794  94.1047 14.98332601 35637,6950.185,96.107,573.983,570.117,0.0
55303.0,STARLINK-5322,PAYLOAD,2023-09-08 07:10:37,14.98332643,0.0002999,70.0008,187.2428,267.0289,93.0527,6.1417e-05,6.4e-06,0.0,0 STARLINK-5322,1 55303U 23010AL  23251.29904785  .00000640  00000-0  61417-4 0  9992,2 55303  70.0008 187.2428 0002999 267.0289  93.0527 14.98332643 35960,6950.185,96.107,574.134,569.965,0.0
55303.0,STARLINK-5322,PAYLOAD,2023-09-08 18:23:34,14.98331814,0.000255,70.0009,186.0646,272.6352,87.4515,7.945e-05,8.55e-06,0.0,0 STARLINK-5322,1 55303U 23010AL  23251.76636851  .00000855  00000-0  79450-4 0  9994,2 55303  70.0009 186.0646 0002550 272.6352  87.4515 14.98331814 36038,6950.187,96.107,573.825,570.28,0.0
55303.0,STARLINK-5322,PAYLOAD,2023-09-09 02:24:14,14.98327411,0.0002688,70.0016,185.2238,267.7707,92.3144,2.2583e-05,1.77e-06,0.0,0 STARLINK-5322,1 55303U 23010AL  23252.10017242  .00000177  00000-0  22583-4 0  9992,2 55303  70.0016 185.2238 0002688 267.7707  92.3144 14.98327411 35787,6950.201,96.107,573.934,570.198,0.0
55303.0,STARLINK-5322,PAYLOAD,2023-09-09 07:12:38,14.98331628,0.000292,70.0013,184.7196,268.2352,91.8473,6.5552e-05,6.89e-06,0.0,0 STARLINK-5322,1 55303U 23010AL  23252.30044843  .00000689  00000-0  65552-4 0  9992,2 55303  70.0013 184.7196 0002920 268.2352  91.8473 14.98331628 36114,6950.188,96.107,574.082,570.023,0.0
55303.0,STARLINK-5322,PAYLOAD,2023-09-10 02:26:15,14.98329571,0.000268,70.0012,182.7,263.4474,96.638,5.4337e-05,5.55e-06,0.0,0 STARLINK-5322,1 55303U 23010AL  23253.10156959  .00000555  00000-0  54337-4 0  9994,2 55303  70.0012 182.7000 0002680 263.4474  96.6380 14.98329571 35933,6950.194,96.107,573.922,570.197,0.0
55303.0,STARLINK-5322,PAYLOAD,2023-09-10 05:38:31,14.98333575,0.0002749,70.0012,182.3633,265.7582,94.3263,8.8479e-06,1.3e-07,0.0,0 STARLINK-5322,1 55303U 23010AL  23253.23508822  .00000013  00000-0  88479-5 0  9992,2 55303  70.0012 182.3633 0002749 265.7582  94.3263 14.98333575 36252,6950.182,96.107,573.957,570.136,0.0
55303.0,STARLINK-5322,PAYLOAD,2023-09-11 02:28:16,14.98326276,0.00027,70.0016,180.1763,264.338,95.7471,-6.4555e-06,-1.7e-06,0.0,0 STARLINK-5322,1 55303U 23010AL  23254.10297288 -.00000170  00000-0 -64555-5 0  9995,2 55303  70.0016 180.1763 0002700 264.3380  95.7471 14.98326276 36081,6950.204,96.107,573.946,570.193,0.0
55303.0,STARLINK-5322,PAYLOAD,2023-09-11 12:05:05,14.98328756,0.0002674,70.0014,179.1661,262.8039,97.2816,-2.0477e-05,-3.37e-06,0.0,0 STARLINK-5322,1 55303U 23010AL  23254.50353215 -.00000337  00000-0 -20477-4 0  9991,2 55303  70.0014 179.1661 0002674 262.8039  97.2816 14.98328756 36443,6950.197,96.107,573.92,570.203,0.0
55303.0,STARLINK-5322,PAYLOAD,2023-09-11 18:29:37,14.98331926,0.0002802,70.0011,178.4919,268.1395,91.9443,3.2401e-05,2.94e-06,0.0,0 STARLINK-5322,1 55303U 23010AL  23254.77056848  .00000294  00000-0  32401-4 0  9992,2 55303  70.0011 178.4919 0002802 268.1395  91.9443 14.98331926 36186,6950.187,96.107,573.999,570.104,0.0
55303.0,STARLINK-5322,PAYLOAD,2023-09-12 02:30:17,14.98342672,0.0002691,70.0012,177.6503,266.8321,93.253,-7.3644e-05,-9.72e-06,0.0,0 STARLINK-5322,1 55303U 23010AL  23255.10436358 -.00000972  00000-0 -73644-4 0  9997,2 55303  70.0012 177.6503 0002691 266.8321  93.2530 14.98342672 36235,6950.154,96.106,573.889,570.148,0.0
55303.0,STARLINK-5322,PAYLOAD,2023-09-12 04:06:25,14.98337046,0.0002832,70.0011,177.4821,268.6065,91.477,1.9453e-05,1.39e-06,0.0,0 STARLINK-5322,1 55303U 23010AL  23255.17112460  .00000139  00000-0  19453-4 0  9990,2 55303  70.0011 177.4821 0002832 268.6065  91.4770 14.98337046 36546,6950.171,96.107,574.004,570.068,0.0
55303.0,STARLINK-5322,PAYLOAD,2023-09-12 21:43:54,14.98326991,0.0002755,70.001,175.6301,266.265,93.8194,2.7222e-05,2.32e-06,0.0,0 STARLINK-5322,1 55303U 23010AL  23255.90549027  .00000232  00000-0  27222-4 0  9991,2 55303  70.0010 175.6301 0002755 266.2650  93.8194 14.98326991 36651,6950.202,96.107,573.982,570.152,0.0
